NORAD_CAT_ID,OBJECT_NAME,OBJECT_TYPE,EPOCH,MEAN_MOTION,ECCENTRICITY,INCLINATION,RA_OF_ASC_NODE,ARG_OF_PERICENTER,MEAN_ANOMALY,BSTAR,MEAN_MOTION_DOT,MEAN_MOTION_DDOT,TLE_LINE0,TLE_LINE1,TLE_LINE2,SEMIMAJOR_AXIS,PERIOD,APOGEE,PERIGEE,DECAYED
52091.0,STARLINK-3713,PAYLOAD,2023-05-03 06:16:42,15.08839508,0.0001236,53.2171,84.2703,100.5091,259.6041,4.0294e-06,-2.24e-06,0.0,0 STARLINK-3713,1 52091U 22029D   23123.26160163 -.00000224  00000-0  40294-5 0  9991,2 52091  53.2171  84.2703 0001236 100.5091 259.6041 15.08839508 63430,6917.882,95.438,540.602,538.892,0.0
52091.0,STARLINK-3713,PAYLOAD,2023-05-03 22:10:33,15.08842797,0.0001418,53.2181,81.2975,117.5437,242.57,-1.5884e-05,-5.41e-06,0.0,0 STARLINK-3713,1 52091U 22029D   23123.92400224 -.00000541  00000-0 -15884-4 0  9998,2 52091  53.2181  81.2975 0001418 117.5437 242.5700 15.08842797 63531,6917.872,95.437,540.718,538.756,0.0
52091.0,STARLINK-3713,PAYLOAD,2023-05-04 06:07:28,15.08849549,0.0001212,53.2174,79.81,96.2993,263.8137,6.4032e-05,7.32e-06,0.0,0 STARLINK-3713,1 52091U 22029D   23124.25519566  .00000732  00000-0  64032-4 0  9994,2 52091  53.2174  79.8100 0001212  96.2993 263.8137 15.08849549 63585,6917.851,95.437,540.555,538.878,0.0
52091.0,STARLINK-3713,PAYLOAD,2023-05-05 04:22:53,15.08841247,0.0001261,53.2174,75.6457,91.7254,268.3882,7.3433e-05,8.81e-06,0.0,0 STARLINK-3713,1 52091U 22029D   23125.18256231  .00000881  00000-0  73433-4 0  9994,2 52091  53.2174  75.6457 0001261  91.7254 268.3882 15.08841247 63728,6917.877,95.437,540.614,538.869,0.0
52091.0,STARLINK-3713,PAYLOAD,2023-05-06 02:38:17,15.08838965,0.0001279,53.2172,71.4822,94.4771,265.6367,-6.4709e-06,-3.91e-06,0.0,0 STARLINK-3713,1 52091U 22029D   23126.10992754 -.00000391  00000-0 -64709-5 0  9999,2 52091  53.2172  71.4822 0001279  94.4771 265.6367 15.08838965 63865,6917.884,95.438,540.633,538.864,0.0
52091.0,STARLINK-3713,PAYLOAD,2023-05-06 05:49:03,15.08834992,0.0001342,53.2175,70.885,107.6232,252.4907,0.00023199,3.406e-05,0.0,0 STARLINK-3713,1 52091U 22029D   23126.24240588  .00003406  00000-0  23199-3 0  9999,2 52091  53.2175  70.8850 0001342 107.6232 252.4907 15.08834992 63884,6917.896,95.438,540.689,538.832,0.0
52091.0,STARLINK-3713,PAYLOAD,2023-05-07 02:29:03,15.08857439,0.0001305,53.2175,67.022,99.3773,260.7367,0.00015243,2.14e-05,0.0,0 STARLINK-3713,1 52091U 22029D   23127.10351096  .00002140  00000-0  15243-3 0  9997,2 52091  53.2175  67.0220 0001305  99.3773 260.7367 15.08857439 64018,6917.827,95.436,540.595,538.789,0.0
52091.0,STARLINK-3713,PAYLOAD,2023-05-07 05:39:49,15.08862098,0.0001326,53.2175,66.4259,100.7385,259.3757,0.00019451,2.811e-05,0.0,0 STARLINK-3713,1 52091U 22029D   23127.23598650  .00002811  00000-0  19451-3 0  9990,2 52091  53.2175  66.4259 0001326 100.7385 259.3757 15.08862098 64038,6917.813,95.436,540.595,538.761,0.0
52091.0,STARLINK-3713,PAYLOAD,2023-05-08 02:19:52,15.08832482,0.0001057,53.2174,62.5618,104.9425,255.1685,-7.8631e-05,-1.539e-05,0.0,0 STARLINK-3713,1 52091U 22029D   23128.09713065 -.00001539  00000-0 -78631-4 0  9998,2 52091  53.2174  62.5618 0001057 104.9425 255.1685 15.08832482 64167,6917.903,95.438,540.5,539.037,0.0
52091.0,STARLINK-3713,PAYLOAD,2023-05-08 05:30:38,15.08837751,0.0001194,53.2177,61.9665,105.6814,254.431,7.6553e-06,-1.66e-06,0.0,0 STARLINK-3713,1 52091U 22029D   23128.22960857 -.00000166  00000-0  76553-5 0  9992,2 52091  53.2177  61.9665 0001194 105.6814 254.4310 15.08837751 64180,6917.887,95.438,540.578,538.926,0.0
52091.0,STARLINK-3713,PAYLOAD,2023-05-09 02:10:38,15.08852992,0.0001173,53.2175,58.1017,113.206,246.9056,0.00035194,5.32e-05,0.0,0 STARLINK-3713,1 52091U 22029D   23129.09072396  .00005320  00000-0  35194-3 0  9990,2 52091  53.2175  58.1017 0001173 113.2060 246.9056 15.08852992 64314,6917.841,95.437,540.517,538.894,0.0
52091.0,STARLINK-3713,PAYLOAD,2023-05-10 02:01:25,15.08846747,8.91e-05,53.2177,53.6432,109.2412,250.8676,0.0002312,3.394e-05,0.0,0 STARLINK-3713,1 52091U 22029D   23130.08432749  .00003394  00000-0  23120-3 0  9998,2 52091  53.2177  53.6432 0000891 109.2412 250.8676 15.08846747 64468,6917.86,95.437,540.341,539.108,0.0
52091.0,STARLINK-3713,PAYLOAD,2023-05-11 01:52:12,15.0885104,0.0001068,53.2175,49.1856,115.1333,244.977,0.00028275,4.216e-05,0.0,0 STARLINK-3713,1 52091U 22029D   23131.07792511  .00004216  00000-0  28275-3 0  9994,2 52091  53.2175  49.1856 0001068 115.1333 244.9770 15.08851040 64619,6917.847,95.437,540.45,538.973,0.0
52091.0,STARLINK-3713,PAYLOAD,2023-05-11 22:32:14,15.08834445,9.48e-05,53.217,45.3164,73.51,286.5996,5.0803e-06,-2.07e-06,0.0,0 STARLINK-3713,1 52091U 22029D   23131.93905425 -.00000207  00000-0  50803-5 0  9990,2 52091  53.2170  45.3164 0000948  73.5100 286.5996 15.08834445 64745,6917.897,95.438,540.418,539.107,0.0
52091.0,STARLINK-3713,PAYLOAD,2023-05-12 01:43:00,15.08833783,8.79e-05,53.2172,44.7215,78.9714,281.1377,-7.072e-06,-4e-06,0.0,0 STARLINK-3713,1 52091U 22029D   23132.07153446 -.00000400  00000-0 -70720-5 0  9990,2 52091  53.2172  44.7215 0000879  78.9714 281.1377 15.08833783 64760,6917.899,95.438,540.372,539.156,0.0
52091.0,STARLINK-3713,PAYLOAD,2023-05-13 01:33:47,15.08859093,8.58e-05,53.2162,40.2618,96.4915,263.6175,0.00048662,7.469e-05,0.0,0 STARLINK-3713,1 52091U 22029D   23133.06512837  .00007469  00000-0  48662-3 0  9991,2 52091  53.2162  40.2618 0000858  96.4915 263.6175 15.08859093 64912,6917.822,95.436,540.281,539.093,0.0
52091.0,STARLINK-3713,PAYLOAD,2023-05-13 23:49:11,15.08842913,0.0001056,53.216,36.1001,80.4928,279.6184,0.0002242,3.282e-05,0.0,0 STARLINK-3713,1 52091U 22029D   23133.99249747  .00003282  00000-0  22420-3 0  9993,2 52091  53.2160  36.1001 0001056  80.4928 279.6184 15.08842913 65054,6917.871,95.437,540.467,539.006,0.0
52091.0,STARLINK-3713,PAYLOAD,2023-05-15 02:50:44,15.08850261,0.0001142,53.2179,31.0403,90.5353,269.577,0.00042824,6.536e-05,0.0,0 STARLINK-3713,1 52091U 22029D   23135.11857264  .00006536  00000-0  42824-3 0  9993,2 52091  53.2179  31.0403 0001142  90.5353 269.5770 15.08850261 65227,6917.849,95.437,540.504,538.924,0.0
52091.0,STARLINK-3713,PAYLOAD,2023-05-15 23:30:45,15.08843198,0.0001425,53.2185,27.1702,98.3194,261.796,0.00015452,2.172e-05,0.0,0 STARLINK-3713,1 52091U 22029D   23135.97969773  .00002172  00000-0  15452-3 0  9995,2 52091  53.2185  27.1702 0001425  98.3194 261.7960 15.08843198 65355,6917.871,95.437,540.721,538.75,0.0
52091.0,STARLINK-3713,PAYLOAD,2023-05-16 21:46:09,15.08844447,0.0001356,53.2191,23.007,98.4899,261.6247,6.0396e-05,6.74e-06,0.0,0 STARLINK-3713,1 52091U 22029D   23136.90705558  .00000674  00000-0  60396-4 0  9991,2 52091  53.2191  23.0070 0001356  98.4899 261.6247 15.08844447 65491,6917.867,95.437,540.67,538.794,0.0
52091.0,STARLINK-3713,PAYLOAD,2023-05-17 16:50:47,15.08834406,0.0001265,53.2187,19.4466,104.6798,255.4334,-7.402e-06,-4.06e-06,0.0,0 STARLINK-3713,1 52091U 22029D   23137.70194164 -.00000406  00000-0 -74020-5 0  9990,2 52091  53.2187  19.4466 0001265 104.6798 255.4334 15.08834406 65617,6917.897,95.438,540.638,538.887,0.0
52091.0,STARLINK-3713,PAYLOAD,2023-05-17 21:36:57,15.08835198,0.0001214,53.2182,18.5541,109.3603,250.752,-7.6635e-06,-4.1e-06,0.0,0 STARLINK-3713,1 52091U 22029D   23137.90066116 -.00000410  00000-0 -76635-5 0  9996,2 52091  53.2182  18.5541 0001214 109.3603 250.7520 15.08835198 65644,6917.895,95.438,540.6,538.92,0.0
52091.0,STARLINK-3713,PAYLOAD,2023-05-18 02:23:06,15.08839805,0.0001048,53.2182,17.662,109.1404,250.9702,6.9265e-05,8.15e-06,0.0,0 STARLINK-3713,1 52091U 22029D   23138.09938029  .00000815  00000-0  69265-4 0  9995,2 52091  53.2182  17.6620 0001048 109.1404 250.9702 15.08839805 65670,6917.881,95.438,540.471,539.021,0.0
52091.0,STARLINK-3713,PAYLOAD,2023-05-18 18:16:58,15.0883774,0.0001056,53.2187,14.6883,106.4915,253.6193,3.6714e-05,2.97e-06,0.0,0 STARLINK-3713,1 52091U 22029D   23138.76178418  .00000297  00000-0  36714-4 0  9994,2 52091  53.2187  14.6883 0001056 106.4915 253.6193 15.08837740 65770,6917.887,95.438,540.483,539.022,0.0
52091.0,STARLINK-3713,PAYLOAD,2023-05-19 00:38:30,15.08838475,0.0001163,53.219,13.4993,108.4043,251.7076,0.00017061,2.428e-05,0.0,0 STARLINK-3713,1 52091U 22029D   23139.02674040  .00002428  00000-0  17061-3 0  9997,2 52091  53.2190  13.4993 0001163 108.4043 251.7076 15.08838475 65816,6917.885,95.438,540.555,538.946,0.0
52091.0,STARLINK-3713,PAYLOAD,2023-05-19 21:18:31,15.08836139,0.0001239,53.2178,9.6337,104.5772,255.5357,0.00018281,2.622e-05,0.0,0 STARLINK-3713,1 52091U 22029D   23139.88786374  .00002622  00000-0  18281-3 0  9996,2 52091  53.2178   9.6337 0001239 104.5772 255.5357 15.08836139 65944,6917.892,95.438,540.614,538.9,0.0
52091.0,STARLINK-3713,PAYLOAD,2023-05-20 14:47:45,15.08853486,0.0001525,53.2178,6.3627,86.2458,273.8708,3.2541e-05,2.3e-06,0.0,0 STARLINK-3713,1 52091U 22029D   23140.61649539  .00000230  00000-0  32541-4 0  9999,2 52091  53.2178   6.3627 0001525  86.2458 273.8708 15.08853486 66055,6917.839,95.437,540.759,538.649,0.0
52091.0,STARLINK-3713,PAYLOAD,2023-05-20 21:09:19,15.08779395,0.0001465,53.2176,5.1735,91.8019,268.314,0.0012265,0.00019253,0.0,0 STARLINK-3713,1 52091U 22029D   23140.88147456  .00019253  00000-0  12265-2 0  9993,2 52091  53.2176   5.1735 0001465  91.8019 268.3140 15.08779395 66097,6918.066,95.441,540.944,538.917,0.0
52091.0,STARLINK-3713,PAYLOAD,2023-05-21 21:00:05,15.08833272,0.0001174,53.217,0.7137,92.413,267.6996,-6.6631e-05,-1.348e-05,0.0,0 STARLINK-3713,1 52091U 22029D   23141.87506791 -.00001348  00000-0 -66631-4 0  9990,2 52091  53.2170   0.7137 0001174  92.4130 267.6996 15.08833272 66249,6917.901,95.438,540.578,538.954,0.0
52091.0,STARLINK-3713,PAYLOAD,2023-05-21 21:00:06,15.08828143,8.22e-05,53.2167,0.7134,101.8163,258.2922,-0.00013543,-2.442e-05,0.0,0 STARLINK-3713,1 52091U 22029D   23141.87506972 -.00002442  00000-0 -13543-3 0  9990,2 52091  53.2167   0.7134 0000822 101.8163 258.2922 15.08828143 66248,6917.917,95.438,540.35,539.213,0.0
